start=new Date('2022-12-28T00:00:00.000Z').valueOf();
sats=[{"LAUNCH_DATE":"2022-07-11","BSTAR":"0.00042123000000","INCLINATION":"97.6557","FILE":"3723863","DECAY_DATE":null,"MEAN_ELEMENT_THEORY":"SGP4","CLASSIFICATION_TYPE":"U","ARG_OF_PERICENTER":"342.5528","NORAD_CAT_ID":"53080","MEAN_MOTION_DDOT":"0.0000000000000","MEAN_MOTION_DOT":"0.00005358","OBJECT_NAME":"STARLINK-4330","SEMIMAJOR_AXIS":"6941.098","TLE_LINE2":"2 53080  97.6557 179.8012 0003438 342.5528  17.5577 15.01275817 25615","SITE":"AFWTR","EPOCH":"2022-12-27T05:50:26.874240","ELEMENT_SET_NO":"999","OBJECT_ID":"2022-077AP","RA_OF_ASC_NODE":"179.8012","ECCENTRICITY":"0.00034380","PERIOD":"95.918","RCS_SIZE":"LARGE","APOAPSIS":"565.349","PERIAPSIS":"560.577","COUNTRY_CODE":"US","TLE_LINE1":"1 53080U 22077AP  22361.24336660  .00005358  00000-0  42123-3 0  9994","GP_ID":"221568196","OBJECT_TYPE":"PAYLOAD","TIME_SYSTEM":"UTC","REF_FRAME":"TEME","MEAN_ANOMALY":"17.5577","EPHEMERIS_TYPE":"0","MEAN_MOTION":"15.01275817","REV_AT_EPOCH":"2561","CENTER_NAME":"EARTH"},{"CLASSIFICATION_TYPE":"U","ARG_OF_PERICENTER":"16.8213","DECAY_DATE":null,"FILE":"3724149","MEAN_ELEMENT_THEORY":"SGP4","NORAD_CAT_ID":"53081","INCLINATION":"97.6534","BSTAR":"0.00018702000000","LAUNCH_DATE":"2022-07-11","SITE":"AFWTR","TLE_LINE2":"2 53081  97.6534 180.3161 0003054  16.8213 343.3112 15.01269958 25691","EPOCH":"2022-12-27T18:27:59.855328","ELEMENT_SET_NO":"999","RA_OF_ASC_NODE":"180.3161","OBJECT_ID":"2022-077AQ","MEAN_MOTION_DDOT":"0.0000000000000","MEAN_MOTION_DOT":"0.00002345","SEMIMAJOR_AXIS":"6941.116","OBJECT_NAME":"STARLINK-4326","APOAPSIS":"565.101","ECCENTRICITY":"0.00030540","RCS_SIZE":"LARGE","PERIOD":"95.919","MEAN_ANOMALY":"343.3112","EPHEMERIS_TYPE":"0","REF_FRAME":"TEME","CENTER_NAME":"EARTH","REV_AT_EPOCH":"2569","MEAN_MOTION":"15.01269958","COUNTRY_CODE":"US","PERIAPSIS":"560.861","GP_ID":"221624467","OBJECT_TYPE":"PAYLOAD","TIME_SYSTEM":"UTC","TLE_LINE1":"1 53081U 22077AQ  22361.76944277  .00002345  00000-0  18702-3 0  9990"},{"LAUNCH_DATE":"2022-07-11","BSTAR":"0.00012110000000","INCLINATION":"97.6539","NORAD_CAT_ID":"53082","FILE":"3723863","DECAY_DATE":null,"MEAN_ELEMENT_THEORY":"SGP4","ARG_OF_PERICENTER":"11.4210","CLASSIFICATION_TYPE":"U","SEMIMAJOR_AXIS":"6941.107","OBJECT_NAME":"STARLINK-4321","MEAN_MOTION_DOT":"0.00001497","MEAN_MOTION_DDOT":"0.0000000000000","OBJECT_ID":"2022-077AR","RA_OF_ASC_NODE":"180.0574","ELEMENT_SET_NO":"999","SITE":"AFWTR","TLE_LINE2":"2 53082  97.6539 180.0574 0003807  11.4210 348.7100 15.01272884 25650","EPOCH":"2022-12-27T12:06:23.924448","PERIOD":"95.919","RCS_SIZE":"LARGE","ECCENTRICITY":"0.00038070","APOAPSIS":"565.615","TLE_LINE1":"1 53082U 22077AR  22361.50444357  .00001497  00000-0  12110-3 0  9991","GP_ID":"221566957","OBJECT_TYPE":"PAYLOAD","TIME_SYSTEM":"UTC","COUNTRY_CODE":"US","PERIAPSIS":"560.330","REV_AT_EPOCH":"2565","MEAN_MOTION":"15.01272884","CENTER_NAME":"EARTH","REF_FRAME":"TEME","EPHEMERIS_TYPE":"0","MEAN_ANOMALY":"348.7100"},{"BSTAR":"0.00014411000000","INCLINATION":"97.6526","LAUNCH_DATE":"2022-07-11","CLASSIFICATION_TYPE":"U","ARG_OF_PERICENTER":"359.6791","FILE":"3724190","MEAN_ELEMENT_THEORY":"SGP4","DECAY_DATE":null,"NORAD_CAT_ID":"53083","MEAN_MOTION_DDOT":"0.0000000000000","MEAN_MOTION_DOT":"0.00001793","OBJECT_NAME":"STARLINK-4251","SEMIMAJOR_AXIS":"6941.124","EPOCH":"2022-12-27T22:59:35.180448","TLE_LINE2":"2 53083  97.6526 180.4864 0001906 359.6791   0.4432 15.01267270 26308","SITE":"AFWTR","ELEMENT_SET_NO":"999","RA_OF_ASC_NODE":"180.4864","OBJECT_ID":"2022-077AS","ECCENTRICITY":"0.00019060","RCS_SIZE":"LARGE","PERIOD":"95.919","APOAPSIS":"564.312","COUNTRY_CODE":"US","PERIAPSIS":"561.666","TIME_SYSTEM":"UTC","GP_ID":"221627042","OBJECT_TYPE":"PAYLOAD","TLE_LINE1":"1 53083U 22077AS  22361.95804607  .00001793  00000-0  14411-3 0  9994","MEAN_ANOMALY":"0.4432","EPHEMERIS_TYPE":"0","REF_FRAME":"TEME","CENTER_NAME":"EARTH","MEAN_MOTION":"15.01267270","REV_AT_EPOCH":"2630"},{"APOAPSIS":"565.057","RCS_SIZE":"LARGE","PERIOD":"95.919","ECCENTRICITY":"0.00029530","CENTER_NAME":"EARTH","REV_AT_EPOCH":"2569","MEAN_MOTION":"15.01261439","MEAN_ANOMALY":"347.4381","EPHEMERIS_TYPE":"0","REF_FRAME":"TEME","GP_ID":"221624682","TIME_SYSTEM":"UTC","OBJECT_TYPE":"PAYLOAD","TLE_LINE1":"1 53084U 22077AT  22361.76920216  .00001202  00000-0  98194-4 0  9995","COUNTRY_CODE":"US","PERIAPSIS":"560.958","NORAD_CAT_ID":"53084","CLASSIFICATION_TYPE":"U","ARG_OF_PERICENTER":"12.6917","FILE":"3724149","DECAY_DATE":null,"MEAN_ELEMENT_THEORY":"SGP4","INCLINATION":"97.6536","BSTAR":"0.00009819400000","LAUNCH_DATE":"2022-07-11","RA_OF_ASC_NODE":"180.3171","OBJECT_ID":"2022-077AT","TLE_LINE2":"2 53084  97.6536 180.3171 0002953  12.6917 347.4381 15.01261439 25698","EPOCH":"2022-12-27T18:27:39.066624","SITE":"AFWTR","ELEMENT_SET_NO":"999","SEMIMAJOR_AXIS":"6941.142","OBJECT_NAME":"STARLINK-4319","MEAN_MOTION_DDOT":"0.0000000000000","MEAN_MOTION_DOT":"0.00001202"},{"MEAN_MOTION_DDOT":"0.0000000000000","MEAN_MOTION_DOT":"0.00003108","SEMIMAJOR_AXIS":"6941.113","OBJECT_NAME":"STARLINK-4324","SITE":"AFWTR","TLE_LINE2":"2 53085  97.6528 180.3142 0003190  12.1627 347.9673 15.01270882 25696","EPOCH":"2022-12-27T18:22:18.933024","ELEMENT_SET_NO":"999","RA_OF_ASC_NODE":"180.3142","OBJECT_ID":"2022-077AU","BSTAR":"0.00024641000000","INCLINATION":"97.6528","LAUNCH_DATE":"2022-07-11","CLASSIFICATION_TYPE":"U","ARG_OF_PERICENTER":"12.1627","DECAY_DATE":null,"FILE":"3724149","MEAN_ELEMENT_THEORY":"SGP4","NORAD_CAT_ID":"53085","COUNTRY_CODE":"US","PERIAPSIS":"560.764","OBJECT_TYPE":"PAYLOAD","GP_ID":"221624896","TIME_SYSTEM":"UTC","TLE_LINE1":"1 53085U 22077AU  22361.76549691  .00003108  00000-0  24641-3 0  9992","MEAN_ANOMALY":"347.9673","EPHEMERIS_TYPE":"0","REF_FRAME":"TEME","CENTER_NAME":"EARTH","MEAN_MOTION":"15.01270882","REV_AT_EPOCH":"2569","ECCENTRICITY":"0.00031900","RCS_SIZE":"LARGE","PERIOD":"95.919","APOAPSIS":"565.193"},{"RCS_SIZE":"LARGE","PERIOD":"95.917","ECCENTRICITY":"0.00029660","APOAPSIS":"564.969","TIME_SYSTEM":"UTC","GP_ID":"221625537","OBJECT_TYPE":"PAYLOAD","TLE_LINE1":"1 53086U 22077AV  22361.76735597  .00010552  00000-0  82416-3 0  9990","COUNTRY_CODE":"US","PERIAPSIS":"560.852","CENTER_NAME":"EARTH","MEAN_MOTION":"15.01292841","REV_AT_EPOCH":"2569","MEAN_ANOMALY":"346.7104","EPHEMERIS_TYPE":"0","REF_FRAME":"TEME","INCLINATION":"97.6523","BSTAR":"0.00082416000000","LAUNCH_DATE":"2022-07-11","NORAD_CAT_ID":"53086","CLASSIFICATION_TYPE":"U","ARG_OF_PERICENTER":"13.4198","MEAN_ELEMENT_THEORY":"SGP4","FILE":"3724149","DECAY_DATE":null,"SEMIMAJOR_AXIS":"6941.046","OBJECT_NAME":"STARLINK-4318","MEAN_MOTION_DDOT":"0.0000000000000","MEAN_MOTION_DOT":"0.00010552","RA_OF_ASC_NODE":"180.3114","OBJECT_ID":"2022-077AV","TLE_LINE2":"2 53086  97.6523 180.3114 0002966  13.4198 346.7104 15.01292841 25693","EPOCH":"2022-12-27T18:24:59.555808","SITE":"AFWTR","ELEMENT_SET_NO":"999"},{"ECCENTRICITY":"0.00019750","PERIOD":"95.919","RCS_SIZE":"LARGE","APOAPSIS":"564.343","COUNTRY_CODE":"US","PERIAPSIS":"561.602","TLE_LINE1":"1 53087U 22077AW  22361.76203319  .00001856  00000-0  14902-3 0  9995","GP_ID":"221625323","OBJECT_TYPE":"PAYLOAD","TIME_SYSTEM":"UTC","REF_FRAME":"TEME","EPHEMERIS_TYPE":"0","MEAN_ANOMALY":"344.3209","REV_AT_EPOCH":"2569","MEAN_MOTION":"15.01272802","CENTER_NAME":"EARTH","LAUNCH_DATE":"2022-07-11","BSTAR":"0.00014902000000","INCLINATION":"97.6514","FILE":"3724149","MEAN_ELEMENT_THEORY":"SGP4","DECAY_DATE":null,"ARG_OF_PERICENTER":"15.8077","CLASSIFICATION_TYPE":"U","NORAD_CAT_ID":"53087","MEAN_MOTION_DOT":"0.00001856","MEAN_MOTION_DDOT":"0.0000000000000","OBJECT_NAME":"STARLINK-4329","SEMIMAJOR_AXIS":"6941.107","ELEMENT_SET_NO":"999","TLE_LINE2":"2 53087  97.6514 180.2957 0001975  15.8077 344.3209 15.01272802 25694","EPOCH":"2022-12-27T18:17:19.667616","SITE":"AFWTR","OBJECT_ID":"2022-077AW","RA_OF_ASC_NODE":"180.2957"},{"MEAN_MOTION_DDOT":"0.0000000000000","MEAN_MOTION_DOT":"0.00001457","OBJECT_NAME":"STARLINK-4333","SEMIMAJOR_AXIS":"6941.105","TLE_LINE2":"2 53088  97.6522 180.3098 0002455   9.2828 350.8441 15.01273735 25692","EPOCH":"2022-12-27T18:19:38.620416","SITE":"AFWTR","ELEMENT_SET_NO":"999","OBJECT_ID":"2022-077AX","RA_OF_ASC_NODE":"180.3098","LAUNCH_DATE":"2022-07-11","BSTAR":"0.00011796000000","INCLINATION":"97.6522","FILE":"3724149","MEAN_ELEMENT_THEORY":"SGP4","DECAY_DATE":null,"CLASSIFICATION_TYPE":"U","ARG_OF_PERICENTER":"9.2828","NORAD_CAT_ID":"53088","PERIAPSIS":"561.265","COUNTRY_CODE":"US","TLE_LINE1":"1 53088U 22077AX  22361.76364144  .00001457  00000-0  11796-3 0  9995","OBJECT_TYPE":"PAYLOAD","GP_ID":"221624255","TIME_SYSTEM":"UTC","REF_FRAME":"TEME","MEAN_ANOMALY":"350.8441","EPHEMERIS_TYPE":"0","REV_AT_EPOCH":"2569","MEAN_MOTION":"15.01273735","CENTER_NAME":"EARTH","ECCENTRICITY":"0.00024550","PERIOD":"95.919","RCS_SIZE":"LARGE","APOAPSIS":"564.674"},{"APOAPSIS":"541.764","PERIOD":"95.436","RCS_SIZE":"LARGE","ECCENTRICITY":"0.00030130","REV_AT_EPOCH":"2486","MEAN_MOTION":"15.08861650","CENTER_NAME":"EARTH","REF_FRAME":"TEME","MEAN_ANOMALY":"332.4564","EPHEMERIS_TYPE":"0","TLE_LINE1":"1 53132U 22083A   22361.52362476  .00006837  00000-0  44700-3 0  9990","OBJECT_TYPE":"PAYLOAD","GP_ID":"221567373","TIME_SYSTEM":"UTC","PERIAPSIS":"537.595","COUNTRY_CODE":"US","NORAD_CAT_ID":"53132","DECAY_DATE":null,"FILE":"3723863","MEAN_ELEMENT_THEORY":"SGP4","CLASSIFICATION_TYPE":"U","ARG_OF_PERICENTER":"27.6588","LAUNCH_DATE":"2022-07-17","BSTAR":"0.00044700000000","INCLINATION":"53.2164","OBJECT_ID":"2022-083A","RA_OF_ASC_NODE":"18.2372","SITE":"AFETR","TLE_LINE2":"2 53132  53.2164  18.2372 0003013  27.6588 332.4564 15.08861650 24860","EPOCH":"2022-12-27T12:34:01.179264","ELEMENT_SET_NO":"999","OBJECT_NAME":"STARLINK-4063","SEMIMAJOR_AXIS":"6917.814","MEAN_MOTION_DDOT":"0.0000000000000","MEAN_MOTION_DOT":"0.00006837"}];
